[{"OBJECT_NAME":"STARLINK-1166","OBJECT_ID":"2020-006S","EPOCH":"2026-03-09T23:09:54.990720","MEAN_MOTION":15.45354542,"ECCENTRICITY":0.00047188,"INCLINATION":53.0527,"RA_OF_ASC_NODE":271.3766,"ARG_OF_PERICENTER":148.0301,"MEAN_ANOMALY":212.0992,"EPHEMERIS_TYPE":0,"CLASSIFICATION_TYPE":"U","NORAD_CAT_ID":45060,"ELEMENT_SET_NO":999,"REV_AT_EPOCH":33670,"BSTAR":0.0022317657,"MEAN_MOTION_DOT":0.00109358,"MEAN_MOTION_DDOT":0},{"OBJECT_NAME":"FLOCK 4Q-9","OBJECT_ID":"2023-174BU","EPOCH":"2026-03-09T18:14:26.529792","MEAN_MOTION":15.44691322,"ECCENTRICITY":0.0008057,"INCLINATION":97.3895,"RA_OF_ASC_NODE":155.2137,"ARG_OF_PERICENTER":139.6631,"MEAN_ANOMALY":220.5217,"EPHEMERIS_TYPE":0,"CLASSIFICATION_TYPE":"U","NORAD_CAT_ID":58322,"ELEMENT_SET_NO":999,"REV_AT_EPOCH":13021,"BSTAR":0.00055840083,"MEAN_MOTION_DOT":0.00026044,"MEAN_MOTION_DDOT":0}]
